OBJECT_NAME,OBJECT_ID,EPOCH,MEAN_MOTION,ECCENTRICITY,INCLINATION,RA_OF_ASC_NODE,ARG_OF_PERICENTER,MEAN_ANOMALY,EPHEMERIS_TYPE,CLASSIFICATION_TYPE,NORAD_CAT_ID,ELEMENT_SET_NO,REV_AT_EPOCH,BSTAR,MEAN_MOTION_DOT,MEAN_MOTION_DDOT
COSMOS 2251 DEB,1993-036ASJ,2024-04-21T16:10:56.872704,14.89220996,0.0016764,74.0081,357.2898,227.8121,132.1638,0,U,35788,999,78728,0.0086651,0.00083149,0
COSMOS 2251 DEB,1993-036ASK,2024-04-19T12:42:56.791008,14.35122899,0.0048943,74.0377,309.0925,197.8354,162.1084,0,U,35789,999,52585,0.00033583,9.46e-06,0
COSMOS 2251 DEB,1993-036ASP,2024-04-21T12:20:22.699968,14.5841145,0.0010371,74.0463,141.2575,348.4078,160.7716,0,U,35793,999,56984,0.0039525,0.00018358,0
COSMOS 2251 DEB,1993-036ASS,2024-04-15T14:53:07.528128,14.57861003,0.0035596,73.9994,232.7119,113.5241,246.967,0,U,35796,999,77890,0.0070411,0.00032665,0
COSMOS 2251 DEB,1993-036ASW,2024-04-18T08:53:46.847904,13.84072126,0.0268195,73.8468,2.938,195.1675,164.1297,0,U,35824,999,75864,0.0022788,3.326e-05,0
COSMOS 2251 DEB,1993-036ASX,2024-04-21T11:47:42.205344,13.66721639,0.0364426,74.1124,46.3737,284.0753,72.0118,0,U,35825,999,74293,0.0036149,4.736e-05,0
COSMOS 2251 DEB,1993-036ATB,2024-04-21T12:28:32.710656,14.55847415,0.001586,74.0372,176.3917,18.2567,341.9162,0,U,35829,999,78977,0.0043905,0.00019316,0
COSMOS 2251 DEB,1993-036ATC,2024-04-21T03:04:36.857568,14.16601444,0.0131937,73.8637,273.2301,359.4454,0.6518,0,U,35830,999,52735,0.0022808,4.93e-05,0
COSMOS 2251 DEB,1993-036ATG,2024-04-22T04:24:47.078208,14.12048716,0.0110799,73.9316,290.768,214.7498,269.0982,0,U,35834,999,75515,0.00083137,1.588e-05,0
COSMOS 2251 DEB,1993-036ATH,2024-04-19T13:43:32.388960,13.79047944,0.0303224,74.0666,198.1157,117.7486,245.4739,0,U,35835,999,75105,0.0038403,5.517e-05,0
COSMOS 2251 DEB,1993-036ATJ,2024-04-21T18:57:33.541920,14.52100842,0.0038847,74.0392,241.5278,88.7386,271.8226,0,U,35836,999,54752,0.0064161,0.00026308,0
COSMOS 2251 DEB,1993-036ATK,2024-04-20T17:35:57.081120,13.53982112,0.0449658,73.729,120.3011,126.7851,349.8363,0,U,35837,999,49810,0.0111,0.00014347,0
COSMOS 2251 DEB,1993-036ATM,2024-04-21T06:40:15.153888,14.74189032,0.0022858,74.2421,89.7519,73.1228,350.2447,0,U,35839,999,79565,0.0045155,0.0003004,0
COSMOS 2251 DEB,1993-036ATN,2024-04-20T21:04:13.216800,14.2720917,0.0133606,73.9387,183.1046,216.4928,142.7061,0,U,35840,999,77420,0.0050734,0.00013625,0
COSMOS 2251 DEB,1993-036ATU,2024-04-21T13:23:23.159616,14.64204995,0.0030832,74.1777,199.491,181.5804,178.5273,0,U,35881,999,78702,0.017594,0.00094557,0
COSMOS 2251 DEB,1993-036ATW,2024-04-20T00:39:59.218272,14.47909115,0.0086235,74.0224,119.8679,35.0963,356.8389,0,U,35883,999,53668,0.00095103,3.667e-05,0
COSMOS 2251 DEB,1993-036ATX,2024-04-10T00:50:32.047296,14.17527098,0.012356,73.9938,357.0223,279.5262,79.1935,0,U,35884,999,13662,0.0016679,3.624e-05,0
COSMOS 2251 DEB,1993-036ATY,2024-04-19T21:57:51.475104,14.35469372,0.002512,74.0283,321.3003,191.626,168.4316,0,U,35885,999,77822,0.00086615,2.473e-05,0
COSMOS 2251 DEB,1993-036AUB,2024-04-21T04:49:52.056480,14.53861739,0.0053816,74.0359,56.1895,335.8882,23.9761,0,U,35888,999,77531,0.0016686,7.127e-05,0
COSMOS 2251 DEB,1993-036AUD,2024-04-21T21:00:44.219520,14.43079928,0.0069234,73.9411,297.5047,193.4681,166.463,0,U,35890,999,76612,0.0054718,0.00018917,0
COSMOS 2251 DEB,1993-036AUE,2024-04-21T01:55:31.395072,14.96459593,0.0096801,73.9955,262.6571,186.2217,173.7775,0,U,35891,999,58137,0.0022182,0.00027761,0
COSMOS 2251 DEB,1993-036AUG,2024-04-21T21:20:35.573568,14.68637765,0.0048707,73.6453,299.9815,224.2463,135.4807,0,U,35893,999,77206,0.0096327,0.0005748,0
COSMOS 2251 DEB,1993-036AUJ,2024-04-21T05:20:35.869632,13.96294919,0.0216359,74.0495,305.6831,182.9068,177.0825,0,U,35895,999,51689,0.0052776,8.836e-05,0
COSMOS 2251 DEB,1993-036AUM,2024-04-19T13:19:13.053216,14.80554327,0.010261,73.9971,61.8033,356.0069,126.01,0,U,35898,999,79161,0.0024217,0.00020342,0
COSMOS 2251 DEB,1993-036AUP,2024-04-16T10:56:31.122528,14.67826636,0.0019895,74.0185,174.3141,5.3211,354.8166,0,U,35900,999,48812,0.0041205,0.00023648,0
COSMOS 2251 DEB,1993-036AUQ,2024-04-13T20:01:48.282240,14.62816599,0.0014332,74.0281,145.6431,347.9096,126.1358,0,U,35901,999,77120,0.0020348,0.00010389,0
COSMOS 2251 DEB,1993-036AUR,2024-04-12T10:00:39.403008,14.21076237,0.0111837,73.9848,255.9013,147.5615,213.247,0,U,35902,999,52454,0.0017752,4.082e-05,0
COSMOS 2251 DEB,1993-036AUS,2024-04-11T13:28:26.156640,14.99825065,0.006834,74.0557,41.7627,235.4574,124.0151,0,U,35903,999,58185,0.0015542,0.0002023,0
COSMOS 2251 DEB,1993-036AUT,2024-04-20T07:12:03.165696,14.78817731,0.0018574,74.0205,331.0257,245.6155,114.3082,0,U,35904,999,57299,0.0055068,0.00040844,0
COSMOS 2251 DEB,1993-036AUU,2024-04-17T22:12:43.036704,14.85900889,0.0114914,74.0383,344.8782,225.6229,133.5497,0,U,35905,999,79743,0.0010232,0.00010031,0
COSMOS 2251 DEB,1993-036AUW,2024-04-07T08:40:21.497088,13.90653263,0.0280066,74.0913,234.3183,100.4231,262.8588,0,U,35956,999,53263,0.0054142,9.265e-05,0
COSMOS 2251 DEB,1993-036AUZ,2024-04-21T13:32:20.125248,14.33338433,0.00231,74.0327,330.1699,200.4576,159.5652,0,U,35959,999,76500,0.00036341,9.78e-06,0
COSMOS 2251 DEB,1993-036AVB,2024-04-11T12:30:32.580288,14.00052048,0.0203513,73.93,193.3063,251.0674,106.8304,0,U,35961,999,75869,0.0021048,3.682e-05,0
COSMOS 2251 DEB,1993-036AVL,2024-04-20T05:57:32.528160,14.77654255,0.0031009,74.0202,320.3973,208.4127,151.5359,0,U,35970,999,77866,0.0054105,0.00039231,0
COSMOS 2251 DEB,1993-036AVQ,2024-04-16T14:09:57.256128,14.71822708,0.0013621,74.0263,65.6852,290.0803,69.8902,0,U,35974,999,79928,0.0073864,0.0004654,0
COSMOS 2251 DEB,1993-036AVR,2024-04-20T23:20:47.345280,14.18972451,0.0126895,74.0532,329.3615,194.2499,165.5055,0,U,35975,999,55554,0.0033475,7.547e-05,0
COSMOS 2251 DEB,1993-036AVS,2024-04-11T08:34:12.205344,14.4257643,0.005613,74.0414,336.4631,196.8506,163.0788,0,U,35976,999,77787,0.00086903,2.914e-05,0
COSMOS 2251 DEB,1993-036AVV,2024-04-15T21:50:42.288288,14.63230276,0.0072602,74.0173,333.626,256.7159,115.5323,0,U,35979,999,79735,0.0010984,5.851e-05,0
COSMOS 2251 DEB,1993-036AVW,2024-04-16T11:58:35.165568,14.47223412,0.0064926,73.9168,194.6407,97.2574,263.597,0,U,35980,999,52691,0.0031296,0.00011734,0
COSMOS 2251 DEB,1993-036AVY,2024-04-21T19:14:52.635840,14.56546746,0.0074545,74.0611,50.3591,272.3828,86.8803,0,U,35982,999,77410,0.0018666,8.611e-05,0
COSMOS 2251 DEB,1993-036AWD,2024-04-18T09:10:02.390304,14.36684576,0.0054841,74.0045,4.5839,269.7115,89.7753,0,U,35987,999,52379,0.0020936,6.253e-05,0
COSMOS 2251 DEB,1993-036AWF,2024-04-21T05:19:27.808032,14.3569013,0.0022864,74.0361,307.0223,180.0838,180.0315,0,U,35989,999,78556,0.00061835,1.765e-05,0
COSMOS 2251 DEB,1993-036AWK,2024-04-16T13:49:23.865024,14.57064964,0.0031404,74.0198,51.9895,24.8568,335.41,0,U,35993,999,77496,0.0024673,0.00011173,0
COSMOS 2251 DEB,1993-036AWN,2024-04-22T01:22:57.091008,14.92796731,0.0118673,74.0217,246.1916,135.5565,225.5216,0,U,35996,999,79186,0.0020501,0.00024376,0
COSMOS 2251 DEB,1993-036AWP,2024-04-15T15:03:24.849216,14.45259816,0.0017387,74.0471,242.4,106.8376,253.4691,0,U,35997,999,77020,0.0015706,5.498e-05,0
COSMOS 2251 DEB,1993-036AWU,2024-04-19T07:42:57.767616,14.91746511,0.0048244,74.0019,105.6187,26.7414,333.624,0,U,36002,999,58303,0.0043033,0.00044576,0
COSMOS 2251 DEB,1993-036AWX,2024-04-21T11:42:48.860928,14.45762824,0.0061373,74.0254,135.8156,58.7959,301.9194,0,U,36005,999,78904,0.00055055,1.97e-05,0
COSMOS 2251 DEB,1993-036AXG,2024-04-15T20:12:15.736320,14.48442226,0.0078494,73.7722,153.6531,282.8976,76.3423,0,U,36045,999,56664,0.002929,0.00011403,0
COSMOS 2251 DEB,1993-036AXH,2024-04-12T01:25:42.078720,14.58853411,0.0063919,74.0218,5.7802,302.4504,119.9138,0,U,36046,999,55091,0.00054234,2.58e-05,0
COSMOS 2251 DEB,1993-036AXJ,2024-04-20T07:55:19.855488,14.65322425,0.0017063,74.046,78.514,302.7273,57.225,0,U,36047,999,57042,0.0060792,0.00033016,0
COSMOS 2251 DEB,1993-036AXK,2024-04-21T22:54:48.081024,14.36028018,0.0027489,74.0567,320.8985,165.3682,264.8806,0,U,36048,999,77018,0.00079358,2.292e-05,0
COSMOS 2251 DEB,1993-036AXL,2024-04-22T03:42:23.015520,14.51744467,0.0014565,74.0362,178.6728,39.3054,320.9162,0,U,36049,999,76969,0.0032877,0.00013227,0
COSMOS 2251 DEB,1993-036AXM,2024-04-16T23:07:37.708032,14.87089179,0.0114072,74.038,333.0794,213.8882,145.4975,0,U,36050,999,58000,0.0010838,0.00010941,0
COSMOS 2251 DEB,1993-036AXP,2024-04-21T10:27:41.105952,14.66328948,0.0013981,74.0233,115.4252,312.3628,47.6356,0,U,36052,999,77610,0.0048721,0.00027014,0
COSMOS 2251 DEB,1993-036AXQ,2024-04-20T16:19:37.049088,14.44117055,0.0041064,73.88,214.8342,291.0472,68.6295,0,U,36053,999,78725,0.0041424,0.00014342,0
COSMOS 2251 DEB,1993-036AXS,2024-04-21T22:40:35.152320,14.37827625,0.0158056,74.0385,205.8335,80.1664,281.7294,0,U,36055,999,74525,0.019808,0.00069633,0
COSMOS 2251 DEB,1993-036AXV,2024-04-19T07:53:26.611872,14.52632242,0.00498,74.0234,96.5962,15.2136,345.0509,0,U,36058,999,57343,0.0020229,8.4e-05,0
COSMOS 2251 DEB,1993-036AXW,2024-04-18T02:10:08.323104,14.68885927,0.0037668,73.9967,254.9146,112.3496,248.1674,0,U,36059,999,76417,0.012878,0.00076955,0
COSMOS 2251 DEB,1993-036AXX,2024-04-21T18:15:39.065184,14.39366331,0.001538,74.0293,265.1509,152.3776,207.8199,0,U,36060,999,76368,0.001473,4.563e-05,0
COSMOS 2251 DEB,1993-036AXY,2024-04-19T10:08:02.717952,14.31706661,0.0041137,74.0267,20.6791,252.4818,107.1836,0,U,36061,999,56477,0.00082032,2.183e-05,0
COSMOS 2251 DEB,1993-036AYB,2024-04-16T07:17:34.031040,14.6047983,0.0045347,73.8391,120.9301,152.1209,208.2401,0,U,36064,999,56727,0.0047376,0.0002336,0
COSMOS 2251 DEB,1993-036AYJ,2024-04-21T18:00:37.121760,14.70002952,0.0023547,74.0219,139.1953,325.7302,34.2348,0,U,36071,999,56051,0.0075696,0.00045875,0
COSMOS 2251 DEB,1993-036AYL,2024-04-19T07:44:00.195936,14.33479513,0.0026001,74.0338,345.7433,203.7412,156.2542,0,U,36073,999,61570,0.00052075,1.418e-05,0
